[{"OBJECT_NAME":"STARLINK-31930","OBJECT_ID":"2024-150P","EPOCH":"2025-10-31T22:48:57.894912","MEAN_MOTION":15.30184199,"ECCENTRICITY":0.00014588,"INCLINATION":53.1601,"RA_OF_ASC_NODE":184.8071,"ARG_OF_PERICENTER":84.7093,"MEAN_ANOMALY":275.4074,"EPHEMERIS_TYPE":0,"CLASSIFICATION_TYPE":"U","NORAD_CAT_ID":60596,"ELEMENT_SET_NO":999,"REV_AT_EPOCH":6825,"BSTAR":6.8390081e-5,"MEAN_MOTION_DOT":1.666e-5,"MEAN_MOTION_DDOT":0},{"OBJECT_NAME":"STARLINK-32162","OBJECT_ID":"2024-150Q","EPOCH":"2025-11-02T08:55:29.991360","MEAN_MOTION":15.30190534,"ECCENTRICITY":0.0001297,"INCLINATION":53.1594,"RA_OF_ASC_NODE":178.7452,"ARG_OF_PERICENTER":97.2913,"MEAN_ANOMALY":262.8235,"EPHEMERIS_TYPE":0,"CLASSIFICATION_TYPE":"U","NORAD_CAT_ID":60597,"ELEMENT_SET_NO":999,"REV_AT_EPOCH":6854,"BSTAR":7.4259e-5,"MEAN_MOTION_DOT":1.84e-5,"MEAN_MOTION_DDOT":0},{"OBJECT_NAME":"STARLINK-32208","OBJECT_ID":"2024-150R","EPOCH":"2025-11-02T09:00:04.026240","MEAN_MOTION":15.30185602,"ECCENTRICITY":0.0001468,"INCLINATION":53.1595,"RA_OF_ASC_NODE":178.7665,"ARG_OF_PERICENTER":85.8895,"MEAN_ANOMALY":274.2274,"EPHEMERIS_TYPE":0,"CLASSIFICATION_TYPE":"U","NORAD_CAT_ID":60598,"ELEMENT_SET_NO":999,"REV_AT_EPOCH":6854,"BSTAR":5.0786e-5,"MEAN_MOTION_DOT":1.144e-5,"MEAN_MOTION_DDOT":0},{"OBJECT_NAME":"STARLINK-32165","OBJECT_ID":"2024-150S","EPOCH":"2025-11-01T23:22:04.230912","MEAN_MOTION":15.30186725,"ECCENTRICITY":0.00012622,"INCLINATION":53.16,"RA_OF_ASC_NODE":180.5255,"ARG_OF_PERICENTER":93.9161,"MEAN_ANOMALY":266.1984,"EPHEMERIS_TYPE":0,"CLASSIFICATION_TYPE":"U","NORAD_CAT_ID":60599,"ELEMENT_SET_NO":999,"REV_AT_EPOCH":6848,"BSTAR":2.7728029e-5,"MEAN_MOTION_DOT":4.62e-6,"MEAN_MOTION_DDOT":0},{"OBJECT_NAME":"STARLINK-31923","OBJECT_ID":"2024-150T","EPOCH":"2025-11-02T08:31:12.870048","MEAN_MOTION":15.30170989,"ECCENTRICITY":6.59e-5,"INCLINATION":53.16,"RA_OF_ASC_NODE":178.6401,"ARG_OF_PERICENTER":101.4547,"MEAN_ANOMALY":258.6528,"EPHEMERIS_TYPE":0,"CLASSIFICATION_TYPE":"U","NORAD_CAT_ID":60600,"ELEMENT_SET_NO":999,"REV_AT_EPOCH":6854,"BSTAR":-8.6054e-5,"MEAN_MOTION_DOT":-2.904e-5,"MEAN_MOTION_DDOT":0},{"OBJECT_NAME":"STARLINK-31988","OBJECT_ID":"2024-150U","EPOCH":"2025-11-02T08:22:04.477152","MEAN_MOTION":15.3019294,"ECCENTRICITY":0.0001434,"INCLINATION":53.1604,"RA_OF_ASC_NODE":178.6014,"ARG_OF_PERICENTER":98.9174,"MEAN_ANOMALY":261.1989,"EPHEMERIS_TYPE":0,"CLASSIFICATION_TYPE":"U","NORAD_CAT_ID":60601,"ELEMENT_SET_NO":999,"REV_AT_EPOCH":6846,"BSTAR":9.3602e-5,"MEAN_MOTION_DOT":2.413e-5,"MEAN_MOTION_DDOT":0},{"OBJECT_NAME":"STARLINK-31983","OBJECT_ID":"2024-150V","EPOCH":"2025-11-01T22:39:27.992736","MEAN_MOTION":15.30280219,"ECCENTRICITY":0.00015309,"INCLINATION":53.1612,"RA_OF_ASC_NODE":180.3432,"ARG_OF_PERICENTER":108.1263,"MEAN_ANOMALY":251.9905,"EPHEMERIS_TYPE":0,"CLASSIFICATION_TYPE":"U","NORAD_CAT_ID":60602,"ELEMENT_SET_NO":999,"REV_AT_EPOCH":6840,"BSTAR":-0.0005641942,"MEAN_MOTION_DOT":-0.00017073,"MEAN_MOTION_DDOT":0},{"OBJECT_NAME":"STARLINK-31874","OBJECT_ID":"2024-150W","EPOCH":"2025-11-02T08:12:56.459232","MEAN_MOTION":15.30204727,"ECCENTRICITY":0.0001423,"INCLINATION":53.1597,"RA_OF_ASC_NODE":178.5626,"ARG_OF_PERICENTER":92.8934,"MEAN_ANOMALY":267.223,"EPHEMERIS_TYPE":0,"CLASSIFICATION_TYPE":"U","NORAD_CAT_ID":60603,"ELEMENT_SET_NO":999,"REV_AT_EPOCH":6854,"BSTAR":0.00011843,"MEAN_MOTION_DOT":3.15e-5,"MEAN_MOTION_DDOT":0},{"OBJECT_NAME":"STARLINK-32039","OBJECT_ID":"2024-150X","EPOCH":"2025-11-01T22:34:21.919008","MEAN_MOTION":15.30189395,"ECCENTRICITY":0.00013605,"INCLINATION":53.1599,"RA_OF_ASC_NODE":183.1593,"ARG_OF_PERICENTER":91.5145,"MEAN_ANOMALY":268.6011,"EPHEMERIS_TYPE":0,"CLASSIFICATION_TYPE":"U","NORAD_CAT_ID":60604,"ELEMENT_SET_NO":999,"REV_AT_EPOCH":6844,"BSTAR":5.6809815e-5,"MEAN_MOTION_DOT":1.323e-5,"MEAN_MOTION_DDOT":0},{"OBJECT_NAME":"STARLINK-11247 [DTC]","OBJECT_ID":"2024-152A","EPOCH":"2025-11-02T11:55:15.741408","MEAN_MOTION":15.69704902,"ECCENTRICITY":0.000116,"INCLINATION":53.1597,"RA_OF_ASC_NODE":23.5937,"ARG_OF_PERICENTER":99.8691,"MEAN_ANOMALY":260.2458,"EPHEMERIS_TYPE":0,"CLASSIFICATION_TYPE":"U","NORAD_CAT_ID":60720,"ELEMENT_SET_NO":999,"REV_AT_EPOCH":6885,"BSTAR":3.7116e-5,"MEAN_MOTION_DOT":3.909e-5,"MEAN_MOTION_DDOT":0},{"OBJECT_NAME":"STARLINK-11259 [DTC]","OBJECT_ID":"2024-152B","EPOCH":"2025-11-02T11:48:11.587392","MEAN_MOTION":15.69707864,"ECCENTRICITY":0.0001063,"INCLINATION":53.1595,"RA_OF_ASC_NODE":23.5601,"ARG_OF_PERICENTER":89.5132,"MEAN_ANOMALY":270.6008,"EPHEMERIS_TYPE":0,"CLASSIFICATION_TYPE":"U","NORAD_CAT_ID":60721,"ELEMENT_SET_NO":999,"REV_AT_EPOCH":6885,"BSTAR":2.924e-5,"MEAN_MOTION_DOT":2.955e-5,"MEAN_MOTION_DDOT":0},{"OBJECT_NAME":"STARLINK-11188 [DTC]","OBJECT_ID":"2024-152C","EPOCH":"2025-11-02T11:41:07.937088","MEAN_MOTION":15.69706818,"ECCENTRICITY":0.0001181,"INCLINATION":53.1589,"RA_OF_ASC_NODE":23.5272,"ARG_OF_PERICENTER":105.2434,"MEAN_ANOMALY":254.8714,"EPHEMERIS_TYPE":0,"CLASSIFICATION_TYPE":"U","NORAD_CAT_ID":60722,"ELEMENT_SET_NO":999,"REV_AT_EPOCH":6897,"BSTAR":2.9252e-5,"MEAN_MOTION_DOT":2.956e-5,"MEAN_MOTION_DDOT":0},{"OBJECT_NAME":"STARLINK-11272 [DTC]","OBJECT_ID":"2024-152D","EPOCH":"2025-11-02T11:27:01.699200","MEAN_MOTION":15.69700313,"ECCENTRICITY":0.000121,"INCLINATION":53.1577,"RA_OF_ASC_NODE":23.4632,"ARG_OF_PERICENTER":82.2983,"MEAN_ANOMALY":277.8172,"EPHEMERIS_TYPE":0,"CLASSIFICATION_TYPE":"U","NORAD_CAT_ID":60723,"ELEMENT_SET_NO":999,"REV_AT_EPOCH":6885,"BSTAR":2.8845e-5,"MEAN_MOTION_DOT":2.906e-5,"MEAN_MOTION_DDOT":0},{"OBJECT_NAME":"STARLINK-11261 [DTC]","OBJECT_ID":"2024-152E","EPOCH":"2025-11-02T11:34:04.169280","MEAN_MOTION":15.6971154,"ECCENTRICITY":0.0001088,"INCLINATION":53.1587,"RA_OF_ASC_NODE":23.4953,"ARG_OF_PERICENTER":88.3464,"MEAN_ANOMALY":271.7678,"EPHEMERIS_TYPE":0,"CLASSIFICATION_TYPE":"U","NORAD_CAT_ID":60724,"ELEMENT_SET_NO":999,"REV_AT_EPOCH":6885,"BSTAR":3.5453e-5,"MEAN_MOTION_DOT":3.709e-5,"MEAN_MOTION_DDOT":0},{"OBJECT_NAME":"STARLINK-11263 [DTC]","OBJECT_ID":"2024-152F","EPOCH":"2025-11-02T11:19:56.772768","MEAN_MOTION":15.69712367,"ECCENTRICITY":0.0001375,"INCLINATION":53.159,"RA_OF_ASC_NODE":23.4285,"ARG_OF_PERICENTER":86.5423,"MEAN_ANOMALY":273.5752,"EPHEMERIS_TYPE":0,"CLASSIFICATION_TYPE":"U","NORAD_CAT_ID":60725,"ELEMENT_SET_NO":999,"REV_AT_EPOCH":6885,"BSTAR":5.6605e-5,"MEAN_MOTION_DOT":6.274e-5,"MEAN_MOTION_DDOT":0},{"OBJECT_NAME":"STARLINK-11235 [DTC]","OBJECT_ID":"2024-152G","EPOCH":"2025-11-02T11:12:52.481376","MEAN_MOTION":15.69711614,"ECCENTRICITY":0.00011,"INCLINATION":53.1595,"RA_OF_ASC_NODE":23.3964,"ARG_OF_PERICENTER":106.8578,"MEAN_ANOMALY":253.256,"EPHEMERIS_TYPE":0,"CLASSIFICATION_TYPE":"U","NORAD_CAT_ID":60726,"ELEMENT_SET_NO":999,"REV_AT_EPOCH":6898,"BSTAR":4.9144e-5,"MEAN_MOTION_DOT":5.369e-5,"MEAN_MOTION_DDOT":0}]
