STARLINK-31930          
1 60596U 24150P   25304.95067008  .00001666  00000+0  68390-4 0  9995
2 60596  53.1601 184.8071 0001458  84.7093 275.4074 15.30184199 68253
STARLINK-32162          
1 60597U 24150Q   25306.37187490  .00001840  00000+0  74259-4 0  9997
2 60597  53.1594 178.7452 0001297  97.2913 262.8235 15.30190534 68542
STARLINK-32208          
1 60598U 24150R   25306.37504660  .00001144  00000+0  50786-4 0  9996
2 60598  53.1595 178.7665 0001468  85.8895 274.2274 15.30185602 68542
STARLINK-32165          
1 60599U 24150S   25305.97366008  .00000462  00000+0  27728-4 0  9996
2 60599  53.1600 180.5255 0001262  93.9161 266.1984 15.30186725 68482
STARLINK-31923          
1 60600U 24150T   25306.35501007 -.00002904  00000+0 -86054-4 0  9994
2 60600  53.1600 178.6401 0000659 101.4547 258.6528 15.30170989 68540
STARLINK-31988          
1 60601U 24150U   25306.34866293  .00002413  00000+0  93602-4 0  9995
2 60601  53.1604 178.6014 0001434  98.9174 261.1989 15.30192940 68465
STARLINK-31983          
1 60602U 24150V   25305.94407399 -.00017073  00000+0 -56419-3 0  9993
2 60602  53.1612 180.3432 0001530 108.1263 251.9905 15.30280219 68405
STARLINK-31874          
1 60603U 24150W   25306.34232013  .00003150  00000+0  11843-3 0  9999
2 60603  53.1597 178.5626 0001423  92.8934 267.2230 15.30204727 68543
STARLINK-32039          
1 60604U 24150X   25305.94053147  .00001323  00000+0  56810-4 0  9998
2 60604  53.1599 183.1593 0001360  91.5145 268.6011 15.30189395 68445
STARLINK-11247 [DTC]    
1 60720U 24152A   25306.49670997  .00003909  00000+0  37116-4 0  9998
2 60720  53.1597  23.5937 0001160  99.8691 260.2458 15.69704902 68853
STARLINK-11259 [DTC]    
1 60721U 24152B   25306.49180078  .00002955  00000+0  29240-4 0  9994
2 60721  53.1595  23.5601 0001063  89.5132 270.6008 15.69707864 68854
STARLINK-11188 [DTC]    
1 60722U 24152C   25306.48689742  .00002956  00000+0  29252-4 0  9990
2 60722  53.1589  23.5272 0001181 105.2434 254.8714 15.69706818 68973
STARLINK-11272 [DTC]    
1 60723U 24152D   25306.47710300  .00002906  00000+0  28845-4 0  9997
2 60723  53.1577  23.4632 0001210  82.2983 277.8172 15.69700313 68850
STARLINK-11261 [DTC]    
1 60724U 24152E   25306.48199270  .00003709  00000+0  35453-4 0  9991
2 60724  53.1587  23.4953 0001088  88.3464 271.7678 15.69711540 68850
STARLINK-11263 [DTC]    
1 60725U 24152F   25306.47218487  .00006274  00000+0  56605-4 0  9995
2 60725  53.1590  23.4285 0001375  86.5423 273.5752 15.69712367 68858
STARLINK-11235 [DTC]    
1 60726U 24152G   25306.46727409  .00005369  00000+0  49144-4 0  9998
2 60726  53.1595  23.3964 0001100 106.8578 253.2560 15.69711614 68980
